start=new Date('2021-11-14T00:00:00.000Z').valueOf();
sats=[{"APOAPSIS":"548.299","NORAD_CAT_ID":"45559","INCLINATION":"53.0545","MEAN_MOTION_DDOT":"0.0000000000000","BSTAR":"0.00010653000000","REV_AT_EPOCH":"8768","SITE":"AFETR","FILE":"3214514","REF_FRAME":"TEME","RA_OF_ASC_NODE":"325.9028","ECCENTRICITY":"0.00015410","GP_ID":"189710414","PERIOD":"95.593","TLE_LINE2":"2 45559  53.0545 325.9028 0001541  70.6823 289.4332 15.06393911 87686","ARG_OF_PERICENTER":"70.6823","ELEMENT_SET_NO":"999","OBJECT_TYPE":"PAYLOAD","MEAN_MOTION_DOT":"0.00001305","PERIAPSIS":"546.165","TLE_LINE1":"1 45559U 20025AE  21317.72189333  .00001305  00000-0  10653-3 0  9994","CLASSIFICATION_TYPE":"U","MEAN_ANOMALY":"289.4332","EPOCH":"2021-11-13T17:19:31.583712","OBJECT_ID":"2020-025AE","COUNTRY_CODE":"US","EPHEMERIS_TYPE":"0","MEAN_MOTION":"15.06393911","MEAN_ELEMENT_THEORY":"SGP4","CENTER_NAME":"EARTH","DECAY_DATE":null,"TIME_SYSTEM":"UTC","OBJECT_NAME":"STARLINK-1344","RCS_SIZE":"LARGE","SEMIMAJOR_AXIS":"6925.367","LAUNCH_DATE":"2020-04-22"},{"INCLINATION":"53.0552","APOAPSIS":"548.195","NORAD_CAT_ID":"45560","MEAN_MOTION_DDOT":"0.0000000000000","BSTAR":"-0.00002427200000","REV_AT_EPOCH":"8782","GP_ID":"189710665","PERIOD":"95.593","TLE_LINE2":"2 45560  53.0552 315.9711 0001360  64.0031 296.1097 15.06387003 87825","ELEMENT_SET_NO":"999","ARG_OF_PERICENTER":"64.0031","OBJECT_TYPE":"PAYLOAD","MEAN_MOTION_DOT":"-0.00000643","FILE":"3214514","SITE":"AFETR","REF_FRAME":"TEME","RA_OF_ASC_NODE":"315.9711","ECCENTRICITY":"0.00013600","TLE_LINE1":"1 45560U 20025AF  21317.70808118 -.00000643  00000-0 -24272-4 0  9992","CLASSIFICATION_TYPE":"U","MEAN_ANOMALY":"296.1097","EPOCH":"2021-11-13T16:59:38.213952","PERIAPSIS":"546.312","OBJECT_NAME":"STARLINK-1346","RCS_SIZE":"LARGE","SEMIMAJOR_AXIS":"6925.388","LAUNCH_DATE":"2020-04-22","OBJECT_ID":"2020-025AF","COUNTRY_CODE":"US","MEAN_MOTION":"15.06387003","EPHEMERIS_TYPE":"0","MEAN_ELEMENT_THEORY":"SGP4","CENTER_NAME":"EARTH","DECAY_DATE":null,"TIME_SYSTEM":"UTC"},{"OBJECT_ID":"2020-025AG","COUNTRY_CODE":"US","EPHEMERIS_TYPE":"0","MEAN_MOTION":"15.07661601","MEAN_ELEMENT_THEORY":"SGP4","CENTER_NAME":"EARTH","DECAY_DATE":null,"TIME_SYSTEM":"UTC","OBJECT_NAME":"STARLINK-1348","SEMIMAJOR_AXIS":"6921.485","RCS_SIZE":"LARGE","LAUNCH_DATE":"2020-04-22","PERIAPSIS":"542.140","TLE_LINE1":"1 45561U 20025AG  21317.79067570  .00004857  00000-0  33335-3 0  9999","CLASSIFICATION_TYPE":"U","MEAN_ANOMALY":"297.4513","EPOCH":"2021-11-13T18:58:34.380480","SITE":"AFETR","FILE":"3214514","REF_FRAME":"TEME","ECCENTRICITY":"0.00017480","RA_OF_ASC_NODE":"240.1567","GP_ID":"189709413","TLE_LINE2":"2 45561  53.0583 240.1567 0001748  62.6654 297.4513 15.07661601 88898","PERIOD":"95.512","ELEMENT_SET_NO":"999","ARG_OF_PERICENTER":"62.6654","OBJECT_TYPE":"PAYLOAD","MEAN_MOTION_DOT":"0.00004857","NORAD_CAT_ID":"45561","APOAPSIS":"544.560","INCLINATION":"53.0583","MEAN_MOTION_DDOT":"0.0000000000000","BSTAR":"0.00033335000000","REV_AT_EPOCH":"8889"},{"TIME_SYSTEM":"UTC","CENTER_NAME":"EARTH","DECAY_DATE":null,"MEAN_MOTION":"15.06396804","COUNTRY_CODE":"US","EPHEMERIS_TYPE":"0","MEAN_ELEMENT_THEORY":"SGP4","OBJECT_ID":"2020-025AH","LAUNCH_DATE":"2020-04-22","SEMIMAJOR_AXIS":"6925.358","RCS_SIZE":"LARGE","OBJECT_NAME":"STARLINK-1354","PERIAPSIS":"546.179","EPOCH":"2021-11-13T17:30:08.959104","MEAN_ANOMALY":"289.1991","TLE_LINE1":"1 45562U 20025AH  21317.72927036 -.00000213  00000-0  45830-5 0  9993","CLASSIFICATION_TYPE":"U","RA_OF_ASC_NODE":"325.8729","ECCENTRICITY":"0.00015080","SITE":"AFETR","FILE":"3214514","REF_FRAME":"TEME","MEAN_MOTION_DOT":"-0.00000213","OBJECT_TYPE":"PAYLOAD","PERIOD":"95.592","TLE_LINE2":"2 45562  53.0545 325.8729 0001508  70.9161 289.1991 15.06396804 87680","ARG_OF_PERICENTER":"70.9161","ELEMENT_SET_NO":"999","GP_ID":"189709663","REV_AT_EPOCH":"8768","BSTAR":"0.00000458300000","MEAN_MOTION_DDOT":"0.0000000000000","APOAPSIS":"548.268","NORAD_CAT_ID":"45562","INCLINATION":"53.0545"},{"CLASSIFICATION_TYPE":"U","TLE_LINE1":"1 45563U 20025AJ  21317.74402288 -.00000162  00000-0  80517-5 0  9997","MEAN_ANOMALY":"288.9937","EPOCH":"2021-11-13T17:51:23.576832","PERIAPSIS":"546.234","OBJECT_NAME":"STARLINK-1355","RCS_SIZE":"LARGE","SEMIMAJOR_AXIS":"6925.376","LAUNCH_DATE":"2020-04-22","OBJECT_ID":"2020-025AJ","MEAN_ELEMENT_THEORY":"SGP4","COUNTRY_CODE":"US","MEAN_MOTION":"15.06391162","EPHEMERIS_TYPE":"0","DECAY_DATE":null,"CENTER_NAME":"EARTH","TIME_SYSTEM":"UTC","NORAD_CAT_ID":"45563","APOAPSIS":"548.248","INCLINATION":"53.0554","MEAN_MOTION_DDOT":"0.0000000000000","BSTAR":"0.00000805170000","REV_AT_EPOCH":"8768","GP_ID":"189710915","ELEMENT_SET_NO":"999","ARG_OF_PERICENTER":"71.1209","TLE_LINE2":"2 45563  53.0554 325.8110 0001454  71.1209 288.9937 15.06391162 87680","PERIOD":"95.593","OBJECT_TYPE":"PAYLOAD","MEAN_MOTION_DOT":"-0.00000162","REF_FRAME":"TEME","FILE":"3214514","SITE":"AFETR","ECCENTRICITY":"0.00014540","RA_OF_ASC_NODE":"325.8110"},{"PERIAPSIS":"546.170","EPOCH":"2021-11-13T17:46:04.786752","TLE_LINE1":"1 45564U 20025AK  21317.74033318 -.00000029  00000-0  16944-4 0  9996","CLASSIFICATION_TYPE":"U","MEAN_ANOMALY":"287.4991","CENTER_NAME":"EARTH","DECAY_DATE":null,"TIME_SYSTEM":"UTC","OBJECT_ID":"2020-025AK","EPHEMERIS_TYPE":"0","COUNTRY_CODE":"US","MEAN_MOTION":"15.06391479","MEAN_ELEMENT_THEORY":"SGP4","LAUNCH_DATE":"2020-04-22","OBJECT_NAME":"STARLINK-1356","SEMIMAJOR_AXIS":"6925.375","RCS_SIZE":"LARGE","BSTAR":"0.00001694400000","REV_AT_EPOCH":"8768","NORAD_CAT_ID":"45564","APOAPSIS":"548.310","INCLINATION":"53.0539","MEAN_MOTION_DDOT":"0.0000000000000","ECCENTRICITY":"0.00015450","RA_OF_ASC_NODE":"325.8184","SITE":"AFETR","FILE":"3214514","REF_FRAME":"TEME","PERIOD":"95.593","TLE_LINE2":"2 45564  53.0539 325.8184 0001545  72.6167 287.4991 15.06391479 87680","ELEMENT_SET_NO":"999","ARG_OF_PERICENTER":"72.6167","MEAN_MOTION_DOT":"-0.00000029","OBJECT_TYPE":"PAYLOAD","GP_ID":"189711166"},{"GP_ID":"189709914","MEAN_MOTION_DOT":"0.00000088","OBJECT_TYPE":"PAYLOAD","ELEMENT_SET_NO":"999","ARG_OF_PERICENTER":"79.0722","TLE_LINE2":"2 45565  53.0548 325.8574 0001391  79.0722 281.0423 15.06394722 87685","PERIOD":"95.592","REF_FRAME":"TEME","SITE":"AFETR","FILE":"3214514","RA_OF_ASC_NODE":"325.8574","ECCENTRICITY":"0.00013910","MEAN_MOTION_DDOT":"0.0000000000000","INCLINATION":"53.0548","APOAPSIS":"548.193","NORAD_CAT_ID":"45565","REV_AT_EPOCH":"8768","BSTAR":"0.00002478400000","RCS_SIZE":"LARGE","SEMIMAJOR_AXIS":"6925.365","OBJECT_NAME":"STARLINK-1357","LAUNCH_DATE":"2020-04-22","MEAN_ELEMENT_THEORY":"SGP4","COUNTRY_CODE":"US","EPHEMERIS_TYPE":"0","MEAN_MOTION":"15.06394722","OBJECT_ID":"2020-025AL","TIME_SYSTEM":"UTC","DECAY_DATE":null,"CENTER_NAME":"EARTH","MEAN_ANOMALY":"281.0423","CLASSIFICATION_TYPE":"U","TLE_LINE1":"1 45565U 20025AL  21317.73296364  .00000088  00000-0  24784-4 0  9993","EPOCH":"2021-11-13T17:35:28.058496","PERIAPSIS":"546.266"},{"ECCENTRICITY":"0.00014920","RA_OF_ASC_NODE":"325.7965","REF_FRAME":"TEME","SITE":"AFETR","FILE":"3214514","ELEMENT_SET_NO":"999","ARG_OF_PERICENTER":"71.2910","PERIOD":"95.592","TLE_LINE2":"2 45566  53.0552 325.7965 0001492  71.2910 288.8241 15.06398073 87685","MEAN_MOTION_DOT":"-0.00000527","OBJECT_TYPE":"PAYLOAD","GP_ID":"189710164","BSTAR":"-0.00001645300000","REV_AT_EPOCH":"8768","APOAPSIS":"548.253","INCLINATION":"53.0552","NORAD_CAT_ID":"45566","MEAN_MOTION_DDOT":"0.0000000000000","DECAY_DATE":null,"CENTER_NAME":"EARTH","TIME_SYSTEM":"UTC","OBJECT_ID":"2020-025AM","MEAN_ELEMENT_THEORY":"SGP4","MEAN_MOTION":"15.06398073","COUNTRY_CODE":"US","EPHEMERIS_TYPE":"0","LAUNCH_DATE":"2020-04-22","OBJECT_NAME":"STARLINK-1358","RCS_SIZE":"LARGE","SEMIMAJOR_AXIS":"6925.354","PERIAPSIS":"546.186","EPOCH":"2021-11-13T17:56:41.377632","CLASSIFICATION_TYPE":"U","TLE_LINE1":"1 45566U 20025AM  21317.74770113 -.00000527  00000-0 -16453-4 0  9998","MEAN_ANOMALY":"288.8241"},{"EPOCH":"2021-11-13T18:12:36.214272","MEAN_ANOMALY":"292.5912","CLASSIFICATION_TYPE":"U","TLE_LINE1":"1 45567U 20025AN  21317.75875248  .00001421  00000-0  11427-3 0  9992","PERIAPSIS":"546.210","LAUNCH_DATE":"2020-04-22","SEMIMAJOR_AXIS":"6925.354","RCS_SIZE":"LARGE","OBJECT_NAME":"STARLINK-1361","TIME_SYSTEM":"UTC","DECAY_DATE":null,"CENTER_NAME":"EARTH","MEAN_ELEMENT_THEORY":"SGP4","EPHEMERIS_TYPE":"0","COUNTRY_CODE":"US","MEAN_MOTION":"15.06398341","OBJECT_ID":"2020-025AN","REV_AT_EPOCH":"8769","BSTAR":"0.00011427000000","MEAN_MOTION_DDOT":"0.0000000000000","INCLINATION":"53.0545","APOAPSIS":"548.228","NORAD_CAT_ID":"45567","OBJECT_TYPE":"PAYLOAD","MEAN_MOTION_DOT":"0.00001421","ARG_OF_PERICENTER":"67.5231","ELEMENT_SET_NO":"999","TLE_LINE2":"2 45567  53.0545 325.7387 0001457  67.5231 292.5912 15.06398341 87697","PERIOD":"95.592","GP_ID":"189710415","RA_OF_ASC_NODE":"325.7387","ECCENTRICITY":"0.00014570","REF_FRAME":"TEME","FILE":"3214514","SITE":"AFETR"},{"PERIAPSIS":"546.107","MEAN_ANOMALY":"286.6669","CLASSIFICATION_TYPE":"U","TLE_LINE1":"1 45568U 20025AP  21317.75044586  .00000829  00000-0  74579-4 0  9995","EPOCH":"2021-11-13T18:00:38.522304","MEAN_ELEMENT_THEORY":"SGP4","MEAN_MOTION":"15.06389153","COUNTRY_CODE":"US","EPHEMERIS_TYPE":"0","OBJECT_ID":"2020-025AP","TIME_SYSTEM":"UTC","DECAY_DATE":null,"CENTER_NAME":"EARTH","RCS_SIZE":"LARGE","SEMIMAJOR_AXIS":"6925.382","OBJECT_NAME":"STARLINK-1363","LAUNCH_DATE":"2020-04-22","MEAN_MOTION_DDOT":"0.0000000000000","APOAPSIS":"548.387","NORAD_CAT_ID":"45568","INCLINATION":"53.0541","REV_AT_EPOCH":"8768","BSTAR":"0.00007457900000","REF_FRAME":"TEME","SITE":"AFETR","FILE":"3214514","ECCENTRICITY":"0.00016460","RA_OF_ASC_NODE":"325.7811","GP_ID":"189710666","MEAN_MOTION_DOT":"0.00000829","OBJECT_TYPE":"PAYLOAD","ARG_OF_PERICENTER":"73.4500","ELEMENT_SET_NO":"999","TLE_LINE2":"2 45568  53.0541 325.7811 0001646  73.4500 286.6669 15.06389153 87684","PERIOD":"95.593"}];
